{"type": "FeatureCollection", "features": [ {"type": "Feature", "properties": {"norad_id": 30612, "name": "FENGYUN 1C DEB", "group": "fengyun-1c-debris", "lat": -71.85146928070144, "lon": 121.1050387538131, "alt_km": 495.20820152796114, "timestamp": "2025-12-08T03:50:07.274656+00:00", "meta": {"OBJECT_NAME": "FENGYUN 1C DEB", "OBJECT_ID": "1999-025AMT", "EPOCH": "2025-12-07T04:59:53.155104", "MEAN_MOTION": 15.28162584, "ECCENTRICITY": 0.00331192, "INCLINATION": 99.0841, "RA_OF_ASC_NODE": 329.1637, "ARG_OF_PERICENTER": 7.0661, "MEAN_ANOMALY": 55.3313, "EPHEMERIS_TYPE": 0, "CLASSIFICATION_TYPE": "U", "NORAD_CAT_ID": 30612, "ELEMENT_SET_NO": 999, "REV_AT_EPOCH": 173, "BSTAR": 0.0055823464, "MEAN_MOTION_DOT": 0.00158742, "MEAN_MOTION_DDOT": 0}, "tle": {"line1": "1 30612U 99025AMT 25341.20825411  .00158742  00000+0  55823-2 0  9996", "line2": "2 30612  99.0841 329.1637 0033119   7.0661  55.3313 15.28162584  1736"}}, "geometry": {"type": "Point", "coordinates": [121.1050387538131, -71.85146928070144]}}, {"type": "Feature", "properties": {"norad_id": 30613, "name": "FENGYUN 1C DEB", "group": "fengyun-1c-debris", "lat": -31.66907190397356, "lon": -83.70221019070952, "alt_km": 481.6350078353662, "timestamp": "2025-12-08T03:50:07.274666+00:00", "meta": {"OBJECT_NAME": "FENGYUN 1C DEB", "OBJECT_ID": "1999-025AMU", "EPOCH": "2025-12-06T06:32:32.886240", "MEAN_MOTION": 15.15501465, "ECCENTRICITY": 0.00708006, "INCLINATION": 98.3086, "RA_OF_ASC_NODE": 99.4064, "ARG_OF_PERICENTER": 188.8898, "MEAN_ANOMALY": 171.1084, "EPHEMERIS_TYPE": 0, "CLASSIFICATION_TYPE": "U", "NORAD_CAT_ID": 30613, "ELEMENT_SET_NO": 999, "REV_AT_EPOCH": 99298, "BSTAR": 0.0066532867, "MEAN_MOTION_DOT": 0.00136397, "MEAN_MOTION_DDOT": 0}, "tle": {"line1": "1 30613U 99025AMU 25340.27260285  .00136397  00000+0  66533-2 0  9997", "line2": "2 30613  98.3086  99.4064 0070800 188.8898 171.1084 15.15501465992988"}}, "geometry": {"type": "Point", "coordinates": [-83.70221019070952, -31.66907190397356]}}, {"type": "Feature", "properties": {"norad_id": 30616, "name": "FENGYUN 1C DEB", "group": "fengyun-1c-debris", "lat": 40.117668756640846, "lon": 33.68611893685244, "alt_km": 1310.5511536323465, "timestamp": "2025-12-08T03:50:07.274676+00:00", "meta": {"OBJECT_NAME": "FENGYUN 1C DEB", "OBJECT_ID": "1999-025AMX", "EPOCH": "2025-12-07T02:27:49.881888", "MEAN_MOTION": 13.35989164, "ECCENTRICITY": 0.03798044, "INCLINATION": 98.6415, "RA_OF_ASC_NODE": 40.1498, "ARG_OF_PERICENTER": 270.1096, "MEAN_ANOMALY": 85.6525, "EPHEMERIS_TYPE": 0, "CLASSIFICATION_TYPE": "U", "NORAD_CAT_ID": 30616, "ELEMENT_SET_NO": 999, "REV_AT_EPOCH": 91625, "BSTAR": 0.0030001071, "MEAN_MOTION_DOT": 2.28e-05, "MEAN_MOTION_DDOT": 0}, "tle": {"line1": "1 30616U 99025AMX 25341.10266067  .00002280  00000+0  30001-2 0  9991", "line2": "2 30616  98.6415  40.1498 0379804 270.1096  85.6525 13.35989164916256"}}, "geometry": {"type": "Point", "coordinates": [33.68611893685244, 40.117668756640846]}}, {"type": "Feature", "properties": {"norad_id": 30619, "name": "FENGYUN 1C DEB", "group": "fengyun-1c-debris", "lat": 60.02138214967239, "lon": -9.429319161398027, "alt_km": 597.6538913982231, "timestamp": "2025-12-08T03:50:07.274686+00:00", "meta": {"OBJECT_NAME": "FENGYUN 1C DEB", "OBJECT_ID": "1999-025ANA", "EPOCH": "2025-12-07T00:53:58.132896", "MEAN_MOTION": 14.41073045, "ECCENTRICITY": 0.0216147, "INCLINATION": 98.2963, "RA_OF_ASC_NODE": 4.1325, "ARG_OF_PERICENTER": 75.6172, "MEAN_ANOMALY": 286.8903, "EPHEMERIS_TYPE": 0, "CLASSIFICATION_TYPE": "U", "NORAD_CAT_ID": 30619, "ELEMENT_SET_NO": 999, "REV_AT_EPOCH": 98867, "BSTAR": 0.00049695089, "MEAN_MOTION_DOT": 2.064e-05, "MEAN_MOTION_DDOT": 0}, "tle": {"line1": "1 30619U 99025ANA 25341.03747839  .00002064  00000+0  49695-3 0  9997", "line2": "2 30619  98.2963   4.1325 0216147  75.6172 286.8903 14.41073045988675"}}, "geometry": {"type": "Point", "coordinates": [-9.429319161398027, 60.02138214967239]}}, {"type": "Feature", "properties": {"norad_id": 30621, "name": "FENGYUN 1C DEB", "group": "fengyun-1c-debris", "lat": -60.631128751753856, "lon": -58.434448581285686, "alt_km": 793.9459126297288, "timestamp": "2025-12-08T03:50:07.274696+00:00", "meta": {"OBJECT_NAME": "FENGYUN 1C DEB", "OBJECT_ID": "1999-025ANC", "EPOCH": "2025-12-06T19:45:03.409632", "MEAN_MOTION": 14.03743291, "ECCENTRICITY": 0.0138604, "INCLINATION": 98.6999, "RA_OF_ASC_NODE": 284.4976, "ARG_OF_PERICENTER": 323.2134, "MEAN_ANOMALY": 63.536, "EPHEMERIS_TYPE": 0, "CLASSIFICATION_TYPE": "U", "NORAD_CAT_ID": 30621, "ELEMENT_SET_NO": 999, "REV_AT_EPOCH": 95507, "BSTAR": 0.0046308962, "MEAN_MOTION_DOT": 7.9e-05, "MEAN_MOTION_DDOT": 0}, "tle": {"line1": "1 30621U 99025ANC 25340.82295613  .00007900  00000+0  46309-2 0  9996", "line2": "2 30621  98.6999 284.4976 0138604 323.2134  63.5360 14.03743291955077"}}, "geometry": {"type": "Point", "coordinates": [-58.434448581285686, -60.631128751753856]}}, {"type": "Feature", "properties": {"norad_id": 30622, "name": "FENGYUN 1C DEB", "group": "fengyun-1c-debris", "lat": 77.65240525448786, "lon": -124.79972137137987, "alt_km": 761.1257076956663, "timestamp": "2025-12-08T03:50:07.274706+00:00", "meta": {"OBJECT_NAME": "FENGYUN 1C DEB", "OBJECT_ID": "1999-025AND", "EPOCH": "2025-12-07T07:19:44.144256", "MEAN_MOTION": 14.31068556, "ECCENTRICITY": 0.00724873, "INCLINATION": 101.0017, "RA_OF_ASC_NODE": 351.4137, "ARG_OF_PERICENTER": 29.6762, "MEAN_ANOMALY": 345.5349, "EPHEMERIS_TYPE": 0, "CLASSIFICATION_TYPE": "U", "NORAD_CAT_ID": 30622, "ELEMENT_SET_NO": 999, "REV_AT_EPOCH": 68720, "BSTAR": 0.0051841013, "MEAN_MOTION_DOT": 0.00014024, "MEAN_MOTION_DDOT": 0}, "tle": {"line1": "1 30622U 99025AND 25341.30537204  .00014024  00000+0  51841-2 0  9998", "line2": "2 30622 101.0017 351.4137 0072487  29.6762 345.5349 14.31068556687204"}}, "geometry": {"type": "Point", "coordinates": [-124.79972137137987, 77.65240525448786]}}, {"type": "Feature", "properties": {"norad_id": 30623, "name": "FENGYUN 1C DEB", "group": "fengyun-1c-debris", "lat": 2.6428655741846923, "lon": -18.057464520521606, "alt_km": 982.3707723306379, "timestamp": "2025-12-08T03:50:07.274716+00:00", "meta": {"OBJECT_NAME": "FENGYUN 1C DEB", "OBJECT_ID": "1999-025ANE", "EPOCH": "2025-12-07T00:31:02.927424", "MEAN_MOTION": 13.29332175, "ECCENTRICITY": 0.04038448, "INCLINATION": 98.8232, "RA_OF_ASC_NODE": 160.5558, "ARG_OF_PERICENTER": 121.9233, "MEAN_ANOMALY": 7.051, "EPHEMERIS_TYPE": 0, "CLASSIFICATION_TYPE": "U", "NORAD_CAT_ID": 30623, "ELEMENT_SET_NO": 999, "REV_AT_EPOCH": 91140, "BSTAR": 0.00082400904, "MEAN_MOTION_DOT": 5.65e-06, "MEAN_MOTION_DDOT": 0}, "tle": {"line1": "1 30623U 99025ANE 25341.02156166  .00000565  00000+0  82401-3 0  9994", "line2": "2 30623  98.8232 160.5558 0403844 121.9233   7.0510 13.29332175911406"}}, "geometry": {"type": "Point", "coordinates": [-18.057464520521606, 2.6428655741846923]}}, {"type": "Feature", "properties": {"norad_id": 30624, "name": "FENGYUN 1C DEB", "group": "fengyun-1c-debris", "lat": -48.53254200964498, "lon": -126.38261968735891, "alt_km": 684.3734384043828, "timestamp": "2025-12-08T03:50:07.274726+00:00", "meta": {"OBJECT_NAME": "FENGYUN 1C DEB", "OBJECT_ID": "1999-025ANF", "EPOCH": "2025-12-06T16:17:35.395296", "MEAN_MOTION": 14.61882316, "ECCENTRICITY": 0.00212277, "INCLINATION": 98.8872, "RA_OF_ASC_NODE": 62.2248, "ARG_OF_PERICENTER": 286.165, "MEAN_ANOMALY": 73.7213, "EPHEMERIS_TYPE": 0, "CLASSIFICATION_TYPE": "U", "NORAD_CAT_ID": 30624, "ELEMENT_SET_NO": 999, "REV_AT_EPOCH": 97407, "BSTAR": 0.0079739055, "MEAN_MOTION_DOT": 0.00040183, "MEAN_MOTION_DDOT": 0}, "tle": {"line1": "1 30624U 99025ANF 25340.67888189  .00040183  00000+0  79739-2 0  9991", "line2": "2 30624  98.8872  62.2248 0021227 286.1650  73.7213 14.61882316974075"}}, "geometry": {"type": "Point", "coordinates": [-126.38261968735891, -48.53254200964498]}}, {"type": "Feature", "properties": {"norad_id": 30625, "name": "FENGYUN 1C DEB", "group": "fengyun-1c-debris", "lat": 14.814545532173849, "lon": 120.29598030049547, "alt_km": 786.5866833848722, "timestamp": "2025-12-08T03:50:07.274736+00:00", "meta": {"OBJECT_NAME": "FENGYUN 1C DEB", "OBJECT_ID": "1999-025ANG", "EPOCH": "2025-12-06T07:45:00.343296", "MEAN_MOTION": 14.41224363, "ECCENTRICITY": 0.00508887, "INCLINATION": 98.9294, "RA_OF_ASC_NODE": 295.9945, "ARG_OF_PERICENTER": 321.2504, "MEAN_ANOMALY": 38.5038, "EPHEMERIS_TYPE": 0, "CLASSIFICATION_TYPE": "U", "NORAD_CAT_ID": 30625, "ELEMENT_SET_NO": 999, "REV_AT_EPOCH": 96600, "BSTAR": 0.0087206215, "MEAN_MOTION_DOT": 0.00028668, "MEAN_MOTION_DDOT": 0}, "tle": {"line1": "1 30625U 99025ANG 25340.32292064  .00028668  00000+0  87206-2 0  9997", "line2": "2 30625  98.9294 295.9945 0050888 321.2504  38.5038 14.41224363966006"}}, "geometry": {"type": "Point", "coordinates": [120.29598030049547, 14.814545532173849]}}, {"type": "Feature", "properties": {"norad_id": 30628, "name": "FENGYUN 1C DEB", "group": "fengyun-1c-debris", "lat": 77.68419182207585, "lon": 126.17309147423344, "alt_km": 673.330685814095, "timestamp": "2025-12-08T03:50:07.274746+00:00", "meta": {"OBJECT_NAME": "FENGYUN 1C DEB", "OBJECT_ID": "1999-025ANK", "EPOCH": "2025-12-07T06:08:06.010368", "MEAN_MOTION": 14.68775707, "ECCENTRICITY": 0.00233196, "INCLINATION": 99.3408, "RA_OF_ASC_NODE": 256.2109, "ARG_OF_PERICENTER": 265.459, "MEAN_ANOMALY": 94.3947, "EPHEMERIS_TYPE": 0, "CLASSIFICATION_TYPE": "U", "NORAD_CAT_ID": 30628, "ELEMENT_SET_NO": 999, "REV_AT_EPOCH": 98390, "BSTAR": 0.0045916896, "MEAN_MOTION_DOT": 0.00026933, "MEAN_MOTION_DDOT": 0}, "tle": {"line1": "1 30628U 99025ANK 25341.25562512  .00026933  00000+0  45917-2 0  9997", "line2": "2 30628  99.3408 256.2109 0023319 265.4590  94.3947 14.68775707983905"}}, "geometry": {"type": "Point", "coordinates": [126.17309147423344, 77.68419182207585]}}]}